{
"type": "FeatureCollection",
"name": "AOI",
"crs": { "type": "name", "properties": { "name": "urn:ogc:def:crs:OGC:1.3:CRS84" } },
"features": [
{ "type": "Feature", "properties": { "id": 1, "luas_km2": 5832.412 }, "geometry": { "type": "MultiPolygon", "coordinates": [ [ [ [ 106.155223237259946, -5.675193502559276 ], [ 106.155299629895197, -5.515821489080207 ], [ 106.169918762898376, -5.515799841104965 ], [ 106.169986667463107, -5.453802973484006 ], [ 106.187641854299272, -5.45387087804876 ], [ 106.187641854299287, -5.436079882083052 ], [ 106.202512953980559, -5.436147786647809 ], [ 106.202512953980545, -5.326889341957641 ], [ 106.187607902016907, -5.326855389675267 ], [ 106.187539997452177, -5.291578968285249 ], [ 106.155013710934711, -5.291511063720495 ], [ 106.15531928147611, -5.273754020037164 ], [ 106.137596190075129, -5.273754020037162 ], [ 106.137731999204618, -5.194237774709513 ], [ 106.052036438484279, -5.194339631556645 ], [ 106.051832724790003, -5.070074278055708 ], [ 106.084426915872257, -5.069904516643815 ], [ 106.084359011307484, -5.052113520678107 ], [ 106.119985012188565, -5.052147900759282 ], [ 106.119917107623763, -5.010997734517987 ], [ 106.105079960224884, -5.010997734517987 ], [ 106.105113912507221, -4.984277288287047 ], [ 106.122837003908188, -4.984379145134181 ], [ 106.122769099343401, -4.969575950017676 ], [ 106.137640199024659, -4.96977966371194 ], [ 106.137572294459929, -4.937049663500219 ], [ 106.217020635222809, -4.937457090888749 ], [ 106.217224348917057, -4.827859123374807 ], [ 106.252772388566072, -4.828028884786693 ], [ 106.252687507860074, -4.730500953657884 ], [ 106.279433418302673, -4.730471245410778 ], [ 106.279161800043681, -4.771570483228507 ], [ 106.429909933798882, -4.771638387793263 ], [ 106.429875981516531, -4.786339726062633 ], [ 106.535901024731231, -4.786356274405043 ], [ 106.535942911663113, -4.644826613114024 ], [ 106.518423533956437, -4.644962422243533 ], [ 106.518355629391692, -4.576922048359415 ], [ 106.562323835070288, -4.577159714336055 ], [ 106.562459644199748, -4.50332198823601 ], [ 106.597990707707581, -4.503177691035909 ], [ 106.597786994013219, -4.382171756643196 ], [ 106.734003550911012, -4.382035947513687 ], [ 106.734003550910984, -4.437989308871486 ], [ 106.996726311946489, -4.437989308871485 ], [ 106.996726311946503, -4.562390471501928 ], [ 106.943692846873134, -4.56211885324291 ], [ 106.943624942308304, -4.869183295063256 ], [ 106.869676871290523, -4.869251199628012 ], [ 106.869829656561251, -4.893111166068661 ], [ 106.736656072971542, -4.892983845009747 ], [ 106.736656072971584, -4.860457558492291 ], [ 106.642374828845689, -4.860589123586524 ], [ 106.642523370080468, -4.878252798493292 ], [ 106.627516461269678, -4.878320703058045 ], [ 106.62743637802042, -4.895837295168694 ], [ 106.545012415092827, -4.895772176199979 ], [ 106.545169444399534, -4.951852858616715 ], [ 106.577695730916929, -4.952056572310981 ], [ 106.577475041081485, -5.01391763080243 ], [ 106.521479239370706, -4.99922053656835 ], [ 106.49489460226927, -4.999016822874088 ], [ 106.494826697704497, -5.394764626263953 ], [ 106.477307319997806, -5.394832530828708 ], [ 106.477171510868317, -5.427256960499031 ], [ 106.409368802960856, -5.427087199087146 ], [ 106.409368802960842, -5.642887905877296 ], [ 106.335374047553898, -5.642756340783058 ], [ 106.335382535624518, -5.636916548214161 ], [ 106.299953328963809, -5.636861375755298 ], [ 106.29999576931678, -5.625079933770373 ], [ 106.235045053129014, -5.625045981487994 ], [ 106.234977148564255, -5.577682547571654 ], [ 106.196848735454537, -5.577818356701163 ], [ 106.19678083088975, -5.675295359406408 ], [ 106.155223237259946, -5.675193502559276 ] ] ] ] } }
]
}
