{
"type": "FeatureCollection",
"name": "Protection_Boom_Case_1",
"crs": { "type": "name", "properties": { "name": "urn:ogc:def:crs:OGC:1.3:CRS84" } },
"features": [
{ "type": "Feature", "properties": { "id": null, "Name": "Protection Boom" }, "geometry": { "type": "MultiLineString", "coordinates": [ [ [ 105.864504820067864, -5.252485198303335 ], [ 105.864500954119933, -5.252501697265192 ], [ 105.86449737601086, -5.252518261033821 ], [ 105.864494086825317, -5.25253488458802 ], [ 105.864491087560395, -5.252551562888464 ], [ 105.864488379125319, -5.252568290879234 ], [ 105.864485962341121, -5.252585063489343 ], [ 105.86448383794044, -5.252601875634284 ], [ 105.864482006567272, -5.252618722217559 ], [ 105.86448046877679, -5.252635598132235 ], [ 105.864479225035154, -5.252652498262486 ], [ 105.864478275719406, -5.252669417485144 ], [ 105.864477621117317, -5.252686350671255 ], [ 105.864477261427339, -5.252703292687631 ], [ 105.8644771967585, -5.252720238398406 ], [ 105.86447742713041, -5.252737182666597 ], [ 105.864477952473223, -5.252754120355656 ], [ 105.864478772627692, -5.252771046331032 ], [ 105.864479887345198, -5.25278795546172 ], [ 105.864481296287806, -5.252804842621827 ], [ 105.864482999028411, -5.252821702692117 ], [ 105.864484995050844, -5.252838530561566 ], [ 105.864487283750023, -5.252855321128912 ], [ 105.864489864432144, -5.252872069304203 ], [ 105.864492736314872, -5.252888770010335 ], [ 105.864495898527636, -5.252905418184596 ], [ 105.864499350111814, -5.252922008780196 ], [ 105.864503090021103, -5.252938536767803 ], [ 105.864507117121747, -5.252954997137061 ], [ 105.864511430192962, -5.252971384898115 ], [ 105.864516027927294, -5.252987695083119 ], [ 105.864520908930928, -5.253003922747744 ], [ 105.864526071724256, -5.253020062972676 ], [ 105.864531514742183, -5.253036110865109 ], [ 105.864537236334712, -5.253052061560227 ], [ 105.864543234767368, -5.253067910222676 ], [ 105.864549508221756, -5.253083652048037 ], [ 105.86455605479614, -5.253099282264275 ], [ 105.864562872505957, -5.253114796133188 ], [ 105.864569959284452, -5.253130188951847 ], [ 105.864577312983329, -5.253145456054015 ], [ 105.864584931373344, -5.253160592811569 ], [ 105.864592812145048, -5.253175594635896 ], [ 105.864600952909427, -5.253190456979287 ], [ 105.864609351198652, -5.25320517533632 ], [ 105.864618004466863, -5.253219745245216 ], [ 105.864626910090834, -5.253234162289202 ], [ 105.864636065370917, -5.253248422097839 ], [ 105.86464546753173, -5.253262520348361 ], [ 105.864655113723074, -5.25327645276697 ], [ 105.864665001020768, -5.253290215130144 ], [ 105.864675126427528, -5.253303803265908 ], [ 105.864685486873924, -5.253317213055105 ], [ 105.864696079219243, -5.253330440432644 ], [ 105.864706900252472, -5.253343481388729 ], [ 105.86471794669329, -5.253356331970077 ], [ 105.864729215193037, -5.253368988281116 ], [ 105.864740702335752, -5.253381446485165 ], [ 105.864752404639162, -5.253393702805599 ], [ 105.8647643185558, -5.253405753526994 ], [ 105.864776440474031, -5.253417594996248 ], [ 105.864788766719172, -5.253429223623695 ], [ 105.864801293554621, -5.253440635884192 ], [ 105.864814017182908, -5.253451828318184 ], [ 105.864826933746983, -5.253462797532755 ], [ 105.864840039331256, -5.253473540202658 ], [ 105.864853329962855, -5.253484053071322 ], [ 105.864866801612806, -5.253494332951835 ], [ 105.864880450197262, -5.253504376727919 ], [ 105.864894271578748, -5.253514181354866 ], [ 105.864908261567393, -5.253523743860466 ], [ 105.864922415922237, -5.253533061345905 ], [ 105.864936730352454, -5.253542130986649 ], [ 105.864951200518732, -5.253550950033291 ], [ 105.86496582203452, -5.253559515812396 ], [ 105.864980590467411, -5.253567825727299 ], [ 105.864995501340445, -5.253575877258906 ], [ 105.865010550133476, -5.253583667966444 ], [ 105.865025732284565, -5.25359119548821 ], [ 105.865041043191354, -5.253598457542282 ], [ 105.865056478212409, -5.253605451927219 ], [ 105.865072032668721, -5.253612176522712 ], [ 105.865087701845056, -5.253618629290247 ], [ 105.865103480991394, -5.253624808273706 ], [ 105.865119365324389, -5.25363071159997 ], [ 105.865135350028808, -5.253636337479484 ], [ 105.86515143025899, -5.253641684206797 ], [ 105.865167601140328, -5.253646750161084 ], [ 105.865183857770688, -5.253651533806632 ], [ 105.865200195222016, -5.253656033693311 ], [ 105.865216608541687, -5.253660248457006 ], [ 105.865233092754124, -5.253664176820041 ], [ 105.865249642862238, -5.253667817591555 ], [ 105.865266253848972, -5.253671169667875 ], [ 105.865282920678794, -5.253674232032837 ], [ 105.865299638299277, -5.253677003758106 ], [ 105.865316401642588, -5.25367948400345 ], [ 105.86533320562701, -5.253681672017 ], [ 105.865350045158522, -5.253683567135472 ], [ 105.865366915132341, -5.253685168784374 ], [ 105.865383810434437, -5.253686476478176 ], [ 105.86540072594309, -5.253687489820458 ], [ 105.865417656530497, -5.253688208504034 ], [ 105.865434597064223, -5.253688632311038 ], [ 105.865451542408891, -5.253688761112995 ], [ 105.865468487427606, -5.25368859487086 ], [ 105.865485426983611, -5.25368813363503 ], [ 105.865502355941757, -5.253687377545323 ], [ 105.865519269170164, -5.253686326830945 ], [ 105.865536161541684, -5.253684981810412 ], [ 105.865553027935491, -5.25368334289146 ], [ 105.865569863238676, -5.253681410570914 ], [ 105.865586662347695, -5.253679185434548 ], [ 105.865603420170018, -5.253676668156895 ], [ 105.865620131625604, -5.253673859501054 ], [ 105.865636791648512, -5.25367076031845 ], [ 105.865653395188332, -5.253667371548581 ], [ 105.865669937211806, -5.253663694218731 ], [ 105.865686412704349, -5.253659729443659 ], [ 105.865702816671501, -5.253655478425261 ], [ 105.865719144140513, -5.253650942452207 ], [ 105.865735390161802, -5.253646122899548 ], [ 105.865751549810511, -5.253641021228301 ], [ 105.865767618187931, -5.253635638985005 ], [ 105.865783590423035, -5.253629977801253 ], [ 105.865799461673944, -5.253624039393197 ], [ 105.865815227129389, -5.253617825561027 ], [ 105.865830882010187, -5.253611338188427 ], [ 105.865846421570637, -5.253604579242003 ], [ 105.865861841100028, -5.253597550770688 ], [ 105.865877135924023, -5.253590254905116 ], [ 105.86589230140612, -5.253582693856983 ], [ 105.865907332948964, -5.253574869918373 ], [ 105.86592222599586, -5.253566785461064 ], [ 105.86593697603206, -5.253558442935807 ], [ 105.865951578586206, -5.253549844871586 ], [ 105.8659660292316, -5.253540993874849 ], [ 105.86598032358765, -5.25353189262872 ], [ 105.865994457321079, -5.253522543892184 ], [ 105.86600842614736, -5.25351295049925 ], [ 105.866022225831941, -5.253503115358095 ], [ 105.866035852191501, -5.253493041450179 ], [ 105.86604930109533, -5.253482731829344 ], [ 105.866062568466447, -5.253472189620886 ], [ 105.866075650282966, -5.253461418020607 ], [ 105.866088542579178, -5.253450420293851 ], [ 105.866101241446913, -5.253439199774509 ], [ 105.86611374303655, -5.253427759864008 ], [ 105.866126043558324, -5.253416104030287 ], [ 105.866138139283422, -5.253404235806737 ], [ 105.866150026545071, -5.253392158791133 ], [ 105.86616170173977, -5.253379876644546 ], [ 105.86617316132822, -5.253367393090233 ], [ 105.86618440183652, -5.253354711912496 ] ] ] } }
]
}
