{
"type": "FeatureCollection",
"name": "Gudang Oil Boom (PL)",
"crs": { "type": "name", "properties": { "name": "urn:ogc:def:crs:OGC:1.3:CRS84" } },
"features": [
{ "type": "Feature", "properties": { "id": 1, "Bsngunan": "Gudang" }, "geometry": { "type": "MultiPolygon", "coordinates": [ [ [ [ 105.86311066638136, -5.254843174791998 ], [ 105.863481785839596, -5.254757999834371 ], [ 105.863627800052683, -5.255335972761132 ], [ 105.863208009190089, -5.255366392388855 ], [ 105.86311066638136, -5.254843174791998 ] ] ] ] } }
]
}
