{
"type": "FeatureCollection",
"name": "Oil Boom Latest",
"crs": { "type": "name", "properties": { "name": "urn:ogc:def:crs:OGC:1.3:CRS84" } },
"features": [
{ "type": "Feature", "properties": { "id": 1, "Name": "Oil Boom" }, "geometry": { "type": "MultiLineString", "coordinates": [ [ [ 106.252065119413032, -5.450482838741841 ], [ 106.252207945655599, -5.450223570675822 ], [ 106.252355245162917, -5.449966817641235 ], [ 106.252506973661582, -5.449712656809638 ], [ 106.252663085546985, -5.449461164573447 ], [ 106.252823533896986, -5.44921241652299 ], [ 106.252988270486085, -5.448966487423783 ], [ 106.253157245799855, -5.448723451194054 ], [ 106.253330409049852, -5.448483380882531 ], [ 106.253507708188891, -5.448246348646487 ], [ 106.253689089926638, -5.448012425730044 ], [ 106.253874499745692, -5.447781682442768 ], [ 106.254063881917943, -5.447554188138532 ], [ 106.254257179521304, -5.44733001119467 ], [ 106.254454334456852, -5.447109218991427 ], [ 106.254655287466278, -5.446891877891705 ], [ 106.254859978149682, -5.446678053221119 ], [ 106.255068344983755, -5.446467809248361 ], [ 106.255280325340266, -5.446261209165878 ], [ 106.255495855504847, -5.446058315070888 ], [ 106.255714870696195, -5.44585918794671 ], [ 106.255937305085524, -5.445663887644431 ], [ 106.256163091816333, -5.445472472864926 ], [ 106.256392163024543, -5.445285001141204 ], [ 106.256624449858847, -5.445101528821125 ], [ 106.256859882501431, -5.444922111050458 ], [ 106.257098390188958, -5.444746801756304 ], [ 106.25733990123382, -5.444575653630897 ], [ 106.257584343045735, -5.444408718115755 ], [ 106.257831642153477, -5.444246045386222 ], [ 106.258081724227054, -5.444087684336395 ], [ 106.258334514099971, -5.443933682564416 ], [ 106.258589935791889, -5.443784086358171 ], [ 106.258847912531422, -5.443638940681381 ], [ 106.259108366779188, -5.443498289160078 ], [ 106.259371220251182, -5.443362174069504 ], [ 106.259636393942273, -5.443230636321394 ], [ 106.259903808149943, -5.443103715451688 ], [ 106.260173382498209, -5.442981449608638 ], [ 106.260445035961894, -5.442863875541353 ], [ 106.26071868689084, -5.442751028588746 ], [ 106.260994253034539, -5.442642942668912 ], [ 106.261271651566858, -5.442539650268939 ], [ 106.261550799110879, -5.442441182435138 ], [ 106.261831611763995, -5.442347568763713 ], [ 106.262114005123109, -5.442258837391868 ], [ 106.262397894310055, -5.442175014989346 ], [ 106.26268319399702, -5.442096126750413 ], [ 106.262969818432282, -5.442022196386292 ], [ 106.263257681465902, -5.441953246118027 ], [ 106.263546696575716, -5.44188929666981 ], [ 106.263836776893228, -5.441830367262749 ], [ 106.2641278352298, -5.441776475609095 ], [ 106.264419784102856, -5.441727637906912 ], [ 106.264712535762087, -5.441683868835214 ], [ 106.265006002215969, -5.44164518154955 ], [ 106.265300095258084, -5.441611587678049 ], [ 106.265594726493717, -5.441583097317931 ], [ 106.265889807366349, -5.441559719032463 ], [ 106.266185249184346, -5.441541459848391 ], [ 106.266480963147572, -5.44152832525383 ], [ 106.266776860374108, -5.441520319196607 ], [ 106.26707285192694, -5.441517444083081 ], [ 106.267368848840704, -5.441519700777416 ], [ 106.267664762148428, -5.441527088601325 ], [ 106.267960502908252, -5.44153960533427 ], [ 106.268255982230201, -5.44155724721413 ], [ 106.26855111130287, -5.441580008938335 ], [ 106.268845801420127, -5.441607883665456 ], [ 106.269139964007792, -5.441640863017263 ], [ 106.269433510650217, -5.441678937081244 ], [ 106.269726353116894, -5.441722094413582 ], [ 106.270018403388974, -5.441770322042598 ], [ 106.270309573685722, -5.441823605472646 ], [ 106.270599776490883, -5.441881928688472 ], [ 106.270888924578998, -5.441945274160028 ], [ 106.271176931041623, -5.442013622847742 ], [ 106.271463709313451, -5.442086954208238 ], [ 106.27174917319833, -5.442165246200509 ], [ 106.272033236895169, -5.44224847529255 ], [ 106.272315815023731, -5.442336616468419 ], [ 106.272596822650286, -5.44242964323577 ], [ 106.272876175313144, -5.442527527633803 ], [ 106.273153789048052, -5.442630240241675 ], [ 106.273429580413421, -5.44273775018734 ], [ 106.273703466515386, -5.442850025156831 ], [ 106.273975365032769, -5.442967031403972 ], [ 106.274245194241772, -5.443088733760518 ], [ 106.274512873040607, -5.443215095646726 ], [ 106.274778320973752, -5.443346079082355 ], [ 106.275041458256297, -5.443481644698075 ], [ 106.275302205797757, -5.443621751747302 ], [ 106.275560485225995, -5.443766358118448 ], [ 106.275816218910663, -5.443915420347576 ], [ 106.276069329986584, -5.444068893631464 ], [ 106.276319742376884, -5.444226731841068 ], [ 106.276567380815791, -5.444388887535396 ], [ 106.276812170871295, -5.444555311975759 ], [ 106.277054038967535, -5.444725955140421 ], [ 106.277292912406878, -5.444900765739638 ], [ 106.27752871939181, -5.445079691231072 ], [ 106.277761389046461, -5.44526267783558 ], [ 106.277990851437963, -5.445449670553385 ], [ 106.278217037597429, -5.445640613180603 ], [ 106.278439879540727, -5.445835448326135 ], [ 106.278659310288859, -5.446034117428919 ], [ 106.278875263888125, -5.446236560775533 ], [ 106.279087675429963, -5.446442717518138 ], [ 106.279296481070404, -5.44665252569277 ], [ 106.279501618049323, -5.446865922237969 ], [ 106.279703024709278, -5.447082843013723 ], [ 106.279900640514001, -5.447303222820753 ], [ 106.280094406066681, -5.44752699542011 ], [ 106.280284263127712, -5.447754093553081 ], [ 106.280470154632312, -5.447984448961408 ], [ 106.280652024707564, -5.448217992407802 ], [ 106.280829818689284, -5.448454653696754 ], [ 106.281003483138434, -5.448694361695635 ], [ 106.281172965857152, -5.448937044356073 ], [ 106.281338215904512, -5.449182628735611 ], [ 106.281499183611757, -5.44943104101963 ], [ 106.281655820597251, -5.449682206543537 ], [ 106.281808079781058, -5.449936049815205 ], [ 106.281955915399067, -5.450192494537659 ], [ 106.28209928301672, -5.450451463632021 ], [ 106.2822381395424, -5.450712879260665 ], [ 106.282372443240405, -5.450976662850615 ], [ 106.282502153743437, -5.451242735117169 ], [ 106.282627232064769, -5.451511016087718 ], [ 106.282747640609941, -5.451781425125794 ], [ 106.282863343188112, -5.452053880955297 ], [ 106.282974305022861, -5.452328301684934 ], [ 106.283080492762707, -5.452604604832821 ], [ 106.283181874491078, -5.452882707351286 ], [ 106.283278419735964, -5.453162525651822 ], [ 106.283370099479029, -5.453443975630216 ], [ 106.283456886164331, -5.453726972691824 ] ] ] } }
]
}
